MALLIGYONG-1            
1 58400U 23179A   24068.85144638  .00006526  00000+0  29427-3 0  9993
2 58400  97.4189 317.1976 0007850 250.7677 109.2710 15.21336420 16469
